[{"OBJECT_NAME":"STARLINK-6163","OBJECT_ID":"2023-090AD","EPOCH":"2026-03-09T00:04:10.228224","MEAN_MOTION":15.02537016,"ECCENTRICITY":0.00011862,"INCLINATION":43.003,"RA_OF_ASC_NODE":278.0726,"ARG_OF_PERICENTER":275.0659,"MEAN_ANOMALY":85.0048,"EPHEMERIS_TYPE":0,"CLASSIFICATION_TYPE":"U","NORAD_CAT_ID":57128,"ELEMENT_SET_NO":999,"REV_AT_EPOCH":15012,"BSTAR":3.9953291e-5,"MEAN_MOTION_DOT":3.36e-6,"MEAN_MOTION_DDOT":0},{"OBJECT_NAME":"QPS-SAR-12 (KUSHINADA-I)","OBJECT_ID":"2025-169A","EPOCH":"2026-03-09T10:50:23.327232","MEAN_MOTION":14.99881586,"ECCENTRICITY":0.00077939,"INCLINATION":42.0102,"RA_OF_ASC_NODE":204.8332,"ARG_OF_PERICENTER":277.3009,"MEAN_ANOMALY":82.6931,"EPHEMERIS_TYPE":0,"CLASSIFICATION_TYPE":"U","NORAD_CAT_ID":65116,"ELEMENT_SET_NO":999,"REV_AT_EPOCH":3243,"BSTAR":0.00057220088,"MEAN_MOTION_DOT":7.038e-5,"MEAN_MOTION_DDOT":0}]
