STARLINK-6163           
1 57128U 23090AD  26068.00289616  .00000336  00000+0  39953-4 0  9995
2 57128  43.0030 278.0726 0001186 275.0659  85.0048 15.02537016150121
QPS-SAR-12 (KUSHINADA-I)
1 65116U 25169A   26068.45165888  .00007038  00000+0  57220-3 0  9995
2 65116  42.0102 204.8332 0007793 277.3009  82.6931 14.99881586 32436
